YAOGAN-30 06A           
1 44449U 19045A   26068.82740719  .00004384  00000+0  32897-3 0  9994
2 44449  34.9928 215.4318 0003189 139.0512 221.0436 15.02102304361666
STARLINK-6309           
1 56535U 23065AJ  26068.42954648 -.00000066  00000+0  10164-4 0  9992
2 56535  43.0000 224.9355 0001092 233.7092 126.3649 15.02536297156431
